{
  "type": "FeatureCollection",
  "features": [
    {
      "type": "Feature",
      "properties": {
        "norad_id": 66467,
        "name": "STARLINK-35682",
        "group": "last-30-days",
        "lat": 26.353681617568004,
        "lon": 112.27312184180099,
        "alt_km": 440.422039134457,
        "timestamp": "2025-12-11T05:00:25.074295+00:00",
        "meta_object_name": "STARLINK-35682",
        "meta_object_id": "2025-262M",
        "meta_epoch": "2025-12-10T22:00:03.000096",
        "meta_mean_motion": 15.40641105,
        "meta_eccentricity": 0.00015098,
        "meta_inclination": 43.0009,
        "meta_ra_of_asc_node": 81.8414,
        "meta_arg_of_pericenter": 282.554,
        "meta_mean_anomaly": 297.0935,
        "meta_ephemeris_type": 0,
        "meta_classification_type": "U",
        "meta_norad_cat_id": 66467,
        "meta_element_set_no": 999,
        "meta_rev_at_epoch": 534,
        "meta_bstar": 0.00093917141,
        "meta_mean_motion_dot": 0.00039052,
        "meta_mean_motion_ddot": 0,
        "tle_line1": "1 66467U 25262M   25344.91670139  .00039052  00000+0  93917-3 0  9990",
        "tle_line2": "2 66467  43.0009  81.8414 0001509 282.5540 297.0935 15.40641105  5348"
      },
      "geometry": {
        "type": "Point",
        "coordinates": [
          112.27312184180099,
          26.353681617568004
        ]
      }
    },
    {
      "type": "Feature",
      "properties": {
        "norad_id": 66468,
        "name": "STARLINK-35331",
        "group": "last-30-days",
        "lat": 41.14751016225395,
        "lon": 149.7425633210879,
        "alt_km": 429.98587377064814,
        "timestamp": "2025-12-11T05:00:25.074305+00:00",
        "meta_object_name": "STARLINK-35331",
        "meta_object_id": "2025-262N",
        "meta_epoch": "2025-12-10T22:00:03.000096",
        "meta_mean_motion": 15.44849823,
        "meta_eccentricity": 0.00010092,
        "meta_inclination": 43.0009,
        "meta_ra_of_asc_node": 81.7667,
        "meta_arg_of_pericenter": 270.2542,
        "meta_mean_anomaly": 339.8495,
        "meta_ephemeris_type": 0,
        "meta_classification_type": "U",
        "meta_norad_cat_id": 66468,
        "meta_element_set_no": 999,
        "meta_rev_at_epoch": 534,
        "meta_bstar": -0.048817345,
        "meta_mean_motion_dot": -0.02080642,
        "meta_mean_motion_ddot": 0,
        "tle_line1": "1 66468U 25262N   25344.91670139 -.02080642  00000+0 -48817-1 0  9993",
        "tle_line2": "2 66468  43.0009  81.7667 0001009 270.2542 339.8495 15.44849823  5346"
      },
      "geometry": {
        "type": "Point",
        "coordinates": [
          149.7425633210879,
          41.14751016225395
        ]
      }
    },
    {
      "type": "Feature",
      "properties": {
        "norad_id": 66469,
        "name": "STARLINK-35451",
        "group": "last-30-days",
        "lat": 42.26223364056363,
        "lon": -177.19260394967412,
        "alt_km": 410.0759989175185,
        "timestamp": "2025-12-11T05:00:25.074315+00:00",
        "meta_object_name": "STARLINK-35451",
        "meta_object_id": "2025-262P",
        "meta_epoch": "2025-12-10T16:12:32.558112",
        "meta_mean_motion": 15.50219904,
        "meta_eccentricity": 4.921e-05,
        "meta_inclination": 43.0005,
        "meta_ra_of_asc_node": 83.1302,
        "meta_arg_of_pericenter": 334.6757,
        "meta_mean_anomaly": 25.4079,
        "meta_ephemeris_type": 0,
        "meta_classification_type": "U",
        "meta_norad_cat_id": 66469,
        "meta_element_set_no": 999,
        "meta_rev_at_epoch": 524,
        "meta_bstar": -0.0029160526,
        "meta_mean_motion_dot": -0.00165698,
        "meta_mean_motion_ddot": 0,
        "tle_line1": "1 66469U 25262P   25344.67537683 -.00165698  00000+0 -29161-2 0  9998",
        "tle_line2": "2 66469  43.0005  83.1302 0000492 334.6757  25.4079 15.50219904  5246"
      },
      "geometry": {
        "type": "Point",
        "coordinates": [
          -177.19260394967412,
          42.26223364056363
        ]
      }
    },
    {
      "type": "Feature",
      "properties": {
        "norad_id": 66470,
        "name": "STARLINK-35655",
        "group": "last-30-days",
        "lat": 42.64646401031356,
        "lon": 161.31608988502492,
        "alt_km": 425.9994769314344,
        "timestamp": "2025-12-11T05:00:25.074326+00:00",
        "meta_object_name": "STARLINK-35655",
        "meta_object_id": "2025-262Q",
        "meta_epoch": "2025-12-10T22:00:03.000096",
        "meta_mean_motion": 15.46177892,
        "meta_eccentricity": 0.0001205,
        "meta_inclination": 43.0003,
        "meta_ra_of_asc_node": 81.7492,
        "meta_arg_of_pericenter": 275.0139,
        "meta_mean_anomaly": 342.4287,
        "meta_ephemeris_type": 0,
        "meta_classification_type": "U",
        "meta_norad_cat_id": 66470,
        "meta_element_set_no": 999,
        "meta_rev_at_epoch": 534,
        "meta_bstar": -0.046503471,
        "meta_mean_motion_dot": -0.02076096,
        "meta_mean_motion_ddot": 0,
        "tle_line1": "1 66470U 25262Q   25344.91670139 -.02076096  00000+0 -46503-1 0  9994",
        "tle_line2": "2 66470  43.0003  81.7492 0001205 275.0139 342.4287 15.46177892  5343"
      },
      "geometry": {
        "type": "Point",
        "coordinates": [
          161.31608988502492,
          42.64646401031356
        ]
      }
    },
    {
      "type": "Feature",
      "properties": {
        "norad_id": 66471,
        "name": "STARLINK-35569",
        "group": "last-30-days",
        "lat": 42.89412766636359,
        "lon": 174.4679284683547,
        "alt_km": 414.41730235824434,
        "timestamp": "2025-12-11T05:00:25.074336+00:00",
        "meta_object_name": "STARLINK-35569",
        "meta_object_id": "2025-262R",
        "meta_epoch": "2025-12-10T17:46:17.575680",
        "meta_mean_motion": 15.48832505,
        "meta_eccentricity": 0.00028004,
        "meta_inclination": 43.0004,
        "meta_ra_of_asc_node": 82.7594,
        "meta_arg_of_pericenter": 353.1343,
        "meta_mean_anomaly": 6.9478,
        "meta_ephemeris_type": 0,
        "meta_classification_type": "U",
        "meta_norad_cat_id": 66471,
        "meta_element_set_no": 999,
        "meta_rev_at_epoch": 525,
        "meta_bstar": -0.0059561847,
        "meta_mean_motion_dot": -0.00315928,
        "meta_mean_motion_ddot": 0,
        "tle_line1": "1 66471U 25262R   25344.74048120 -.00315928  00000+0 -59562-2 0  9993",
        "tle_line2": "2 66471  43.0004  82.7594 0002800 353.1343   6.9478 15.48832505  5251"
      },
      "geometry": {
        "type": "Point",
        "coordinates": [
          174.4679284683547,
          42.89412766636359
        ]
      }
    },
    {
      "type": "Feature",
      "properties": {
        "norad_id": 66472,
        "name": "STARLINK-35567",
        "group": "last-30-days",
        "lat": 41.70388857314916,
        "lon": -172.98392675638283,
        "alt_km": 409.3183087571024,
        "timestamp": "2025-12-11T05:00:25.074347+00:00",
        "meta_object_name": "STARLINK-35567",
        "meta_object_id": "2025-262S",
        "meta_epoch": "2025-12-10T17:44:43.245024",
        "meta_mean_motion": 15.50602212,
        "meta_eccentricity": 0.00018545,
        "meta_inclination": 43.0003,
        "meta_ra_of_asc_node": 82.7509,
        "meta_arg_of_pericenter": 260.0328,
        "meta_mean_anomaly": 100.0323,
        "meta_ephemeris_type": 0,
        "meta_classification_type": "U",
        "meta_norad_cat_id": 66472,
        "meta_element_set_no": 999,
        "meta_rev_at_epoch": 525,
        "meta_bstar": 0.0012310005,
        "meta_mean_motion_dot": 0.00072609,
        "meta_mean_motion_ddot": 0,
        "tle_line1": "1 66472U 25262S   25344.73938941  .00072609  00000+0  12310-2 0  9996",
        "tle_line2": "2 66472  43.0003  82.7509 0001854 260.0328 100.0323 15.50602212  5252"
      },
      "geometry": {
        "type": "Point",
        "coordinates": [
          -172.98392675638283,
          41.70388857314916
        ]
      }
    },
    {
      "type": "Feature",
      "properties": {
        "norad_id": 66473,
        "name": "STARLINK-35568",
        "group": "last-30-days",
        "lat": 41.28476325377717,
        "lon": -170.43324317780628,
        "alt_km": 408.9640217836168,
        "timestamp": "2025-12-11T05:00:25.074357+00:00",
        "meta_object_name": "STARLINK-35568",
        "meta_object_id": "2025-262T",
        "meta_epoch": "2025-12-10T17:44:14.020224",
        "meta_mean_motion": 15.50606476,
        "meta_eccentricity": 0.00014813,
        "meta_inclination": 43.0004,
        "meta_ra_of_asc_node": 82.7481,
        "meta_arg_of_pericenter": 265.4377,
        "meta_mean_anomaly": 94.6314,
        "meta_ephemeris_type": 0,
        "meta_classification_type": "U",
        "meta_norad_cat_id": 66473,
        "meta_element_set_no": 999,
        "meta_rev_at_epoch": 525,
        "meta_bstar": 0.0023568265,
        "meta_mean_motion_dot": 0.0014057,
        "meta_mean_motion_ddot": 0,
        "tle_line1": "1 66473U 25262T   25344.73905116  .00140570  00000+0  23568-2 0  9995",
        "tle_line2": "2 66473  43.0004  82.7481 0001481 265.4377  94.6314 15.50606476  5256"
      },
      "geometry": {
        "type": "Point",
        "coordinates": [
          -170.43324317780628,
          41.28476325377717
        ]
      }
    }
  ]
}